{"type":"FeatureCollection","features":[{"type":"Feature","geometry":{"type":"Point","coordinates":[-0.262574,39.965214]},"properties":{"title":"","name":"","description":"Onda","tooltip-enabled":true,"marker-color":"#1d81a2","marker-size":1,"marker-symbol":"","anchor":"bottom-center","icon":"circle","text-offset-x":0,"text-offset-y":0,"text-style":"plain","text-rotate":0,"visible":true,"viewport":false,"text-bold":false,"text-italic":false,"text-uppercase":false,"text-space":false,"text-color":"#333333","text-font-size":14,"text-halo":"#f2f3f0"}},{"type":"Feature","geometry":{"type":"Point","coordinates":[-0.409305,39.872301]},"properties":{"title":"","name":"","description":"Almed jar","tooltip-enabled":true,"marker-color":"#c71e1d","marker-size":1,"marker-symbol":"","anchor":"bottom-center","icon":"circle","text-offset-x":0,"text-offset-y":0,"text-style":"plain","text-rotate":0,"visible":true,"viewport":false,"text-bold":false,"text-italic":false,"text-uppercase":false,"text-space":false,"text-color":"#333333","text-font-size":14,"text-halo":"#f2f3f0"}},{"type":"Feature","geometry":{"type":"Point","coordinates":[-0.369238,39.834462]},"properties":{"title":"","name":"","description":"Azu bar","tooltip-enabled":true,"marker-color":"#c71e1d","marker-size":1,"marker-symbol":"","anchor":"bottom-center","icon":"circle","text-offset-x":0,"text-offset-y":0,"text-style":"plain","text-rotate":0,"visible":true,"viewport":false,"text-bold":false,"text-italic":false,"text-uppercase":false,"text-space":false,"text-color":"#333333","text-font-size":14,"text-halo":"#f2f3f0"}},{"type":"Feature","geometry":{"type":"Point","coordinates":[-0.25766,39.891126]},"properties":{"title":"\n","name":"","description":"Artana","tooltip-enabled":true,"marker-color":"#c71e1d","marker-size":1,"marker-symbol":"","anchor":"bottom-center","icon":"circle","text-offset-x":0,"text-offset-y":0,"text-style":"plain","text-rotate":0,"visible":true,"viewport":false,"text-bold":false,"text-italic":false,"text-uppercase":false,"text-space":false,"text-color":"#333333","text-font-size":14,"text-halo":"#f2f3f0"}},{"type":"Feature","geometry":{"type":"Point","coordinates":[-0.41978,40.020898]},"properties":{"title":"","name":"","description":"Fuentes de Ay dar","tooltip-enabled":true,"marker-color":"#c71e1d","marker-size":1,"marker-symbol":"","anchor":"bottom-center","icon":"circle","text-offset-x":0,"text-offset-y":0,"text-style":"plain","text-rotate":0,"visible":true,"viewport":false,"text-bold":false,"text-italic":false,"text-uppercase":false,"text-space":false,"text-color":"#333333","text-font-size":14,"text-halo":"#f2f3f0"}},{"type":"Feature","geometry":{"type":"Point","coordinates":[-0.374454,39.998564]},"properties":{"title":"","name":"","description":"Ay dar","tooltip-enabled":true,"marker-color":"#c71e1d","marker-size":1,"marker-symbol":"","anchor":"bottom-center","icon":"circle","text-offset-x":0,"text-offset-y":0,"text-style":"plain","text-rotate":0,"visible":true,"viewport":false,"text-bold":false,"text-italic":false,"text-uppercase":false,"text-space":false,"text-color":"#333333","text-font-size":14,"text-halo":"#f2f3f0"}},{"type":"Feature","geometry":{"type":"Point","coordinates":[-0.395367,39.964802]},"properties":{"title":"","name":"","description":"Villamalur","tooltip-enabled":true,"marker-color":"#c71e1d","marker-size":1,"marker-symbol":"","anchor":"bottom-center","icon":"circle","text-offset-x":0,"text-offset-y":0,"text-style":"plain","text-rotate":0,"visible":true,"viewport":false,"text-bold":false,"text-italic":false,"text-uppercase":false,"text-space":false,"text-color":"#333333","text-font-size":14,"text-halo":"#f2f3f0"}},{"type":"Feature","geometry":{"type":"Point","coordinates":[-0.438279,39.988774]},"properties":{"title":"","name":"","description":"Torralba del Pinar","tooltip-enabled":true,"marker-color":"#c71e1d","marker-size":1,"marker-symbol":"","anchor":"bottom-center","icon":"circle","text-offset-x":0,"text-offset-y":0,"text-style":"plain","text-rotate":0,"visible":true,"viewport":false,"text-bold":false,"text-italic":false,"text-uppercase":false,"text-space":false,"text-color":"#333333","text-font-size":14,"text-halo":"#f2f3f0"}},{"type":"Feature","geometry":{"type":"Point","coordinates":[-0.332296,39.952339]},"properties":{"title":"","name":"","description":"Suera","tooltip-enabled":true,"marker-color":"#c71e1d","marker-size":1,"marker-symbol":"","anchor":"bottom-center","icon":"circle","text-offset-x":0,"text-offset-y":0,"text-style":"plain","text-rotate":0,"visible":true,"viewport":false,"text-bold":false,"text-italic":false,"text-uppercase":false,"text-space":false,"text-color":"#333333","text-font-size":14,"text-halo":"#f2f3f0"}},{"type":"Feature","geometry":{"type":"Point","coordinates":[-0.307629,39.948087]},"properties":{"title":"","name":"","description":"Tales","tooltip-enabled":true,"marker-color":"#c71e1d","marker-size":1,"marker-symbol":"","anchor":"bottom-center","icon":"circle","text-offset-x":0,"text-offset-y":0,"text-style":"plain","text-rotate":0,"visible":true,"viewport":false,"text-bold":false,"text-italic":false,"text-uppercase":false,"text-space":false,"text-color":"#333333","text-font-size":14,"text-halo":"#f2f3f0"}},{"type":"Feature","geometry":{"type":"Point","coordinates":[-0.354769,39.915838]},"properties":{"title":"","name":"","description":"Alcudia de Veo","tooltip-enabled":true,"marker-color":"#c71e1d","marker-size":1,"marker-symbol":"","anchor":"bottom-center","icon":"circle","text-offset-x":0,"text-offset-y":0,"text-style":"plain","text-rotate":0,"visible":true,"viewport":false,"text-bold":false,"text-italic":false,"text-uppercase":false,"text-space":false,"text-color":"#333333","text-font-size":14,"text-halo":"#f2f3f0"}},{"type":"Feature","geometry":{"type":"Point","coordinates":[-0.269013,39.837689]},"properties":{"title":"","name":"","description":"Alfondeguilla","tooltip-enabled":true,"marker-color":"#c71e1d","marker-size":1,"marker-symbol":"","anchor":"bottom-center","icon":"circle","text-offset-x":0,"text-offset-y":0,"text-style":"plain","text-rotate":0,"visible":true,"viewport":false,"text-bold":false,"text-italic":false,"text-uppercase":false,"text-space":false,"text-color":"#333333","text-font-size":14,"text-halo":"#f2f3f0"}},{"type":"Feature","geometry":{"type":"Point","coordinates":[-0.340981,39.900781]},"properties":{"title":"","name":"","description":"A n","tooltip-enabled":true,"marker-color":"#c71e1d","marker-size":1,"marker-symbol":"","anchor":"bottom-center","icon":"circle","text-offset-x":0,"text-offset-y":0,"text-style":"plain","text-rotate":0,"visible":true,"viewport":false,"text-bold":false,"text-italic":false,"text-uppercase":false,"text-space":false,"text-color":"#333333","text-font-size":14,"text-halo":"#f2f3f0"}},{"type":"Feature","geometry":{"type":"Point","coordinates":[-0.28827,39.958139]},"properties":{"title":"","name":"","description":"Artesa","tooltip-enabled":true,"marker-color":"#c71e1d","marker-size":1,"marker-symbol":"","anchor":"bottom-center","icon":"circle","text-offset-x":0,"text-offset-y":0,"text-style":"plain","text-rotate":0,"visible":true,"viewport":false,"text-bold":false,"text-italic":false,"text-uppercase":false,"text-space":false,"text-color":"#333333","text-font-size":14,"text-halo":"#f2f3f0"}},{"type":"Feature","geometry":{"type":"Point","coordinates":[-0.307933,39.879432]},"properties":{"title":"","name":"","description":"Eslida","tooltip-enabled":true,"marker-color":"#c71e1d","marker-size":1,"marker-symbol":"","anchor":"bottom-center","icon":"circle","text-offset-x":0,"text-offset-y":0,"text-style":"plain","text-rotate":0,"visible":true,"viewport":false,"text-bold":false,"text-italic":false,"text-uppercase":false,"text-space":false,"text-color":"#333333","text-font-size":14,"text-halo":"#f2f3f0"}},{"type":"Feature","geometry":{"type":"Point","coordinates":[-0.320076,39.850937]},"properties":{"title":"","name":"","description":"Ch var","tooltip-enabled":true,"marker-color":"#c71e1d","marker-size":1,"marker-symbol":"","anchor":"bottom-center","icon":"circle","text-offset-x":0,"text-offset-y":0,"text-style":"plain","text-rotate":0,"visible":true,"viewport":false,"text-bold":false,"text-italic":false,"text-uppercase":false,"text-space":false,"text-color":"#333333","text-font-size":14,"text-halo":"#f2f3f0"}},{"type":"Feature","geometry":{"type":"Point","coordinates":[-0.197425,39.92884]},"properties":{"title":"","name":"","description":"Betx ","tooltip-enabled":true,"marker-color":"#1d81a2","marker-size":1,"marker-symbol":"","anchor":"bottom-center","icon":"circle","text-offset-x":0,"text-offset-y":0,"text-style":"plain","text-rotate":0,"visible":true,"viewport":false,"text-bold":false,"text-italic":false,"text-uppercase":false,"text-space":false,"text-color":"#333333","text-font-size":14,"text-halo":"#f2f3f0"}},{"type":"Feature","geometry":{"type":"Point","coordinates":[-0.231699,39.823584]},"properties":{"title":"","name":"","description":"La Vall d'Uix ","tooltip-enabled":true,"marker-color":"#1d81a2","marker-size":1,"marker-symbol":"","anchor":"bottom-center","icon":"circle","text-offset-x":0,"text-offset-y":0,"text-style":"plain","text-rotate":0,"visible":true,"viewport":false,"text-bold":false,"text-italic":false,"text-uppercase":false,"text-space":false,"text-color":"#333333","text-font-size":14,"text-halo":"#f2f3f0"}},{"type":"Feature","geometry":{"type":"Point","coordinates":[-0.183188,39.858744]},"properties":{"title":"","name":"","description":"Vilavella","tooltip-enabled":true,"marker-color":"#c71e1d","marker-size":1,"marker-symbol":"","anchor":"bottom-center","icon":"circle","text-offset-x":0,"text-offset-y":0,"text-style":"plain","text-rotate":0,"visible":true,"viewport":false,"text-bold":false,"text-italic":false,"text-uppercase":false,"text-space":false,"text-color":"#333333","text-font-size":14,"text-halo":"#f2f3f0"}}]}