{"type":"FeatureCollection","features":[{"type":"Feature","properties":{"title":"","name":"","description":"Onda","tooltip-enabled":true,"marker-color":"#1d81a2","marker-size":1,"marker-symbol":"","anchor":"bottom-center","icon":"circle","text-offset-x":0,"text-offset-y":0,"text-style":"plain","text-rotate":0,"visible":true,"viewport":false,"text-bold":false,"text-italic":false,"text-uppercase":false,"text-space":false,"text-color":"#333333","text-font-size":14,"text-halo":"#f2f3f0"},"geometry":{"type":"Point","coordinates":[-0.2625745,39.965214]}},{"type":"Feature","properties":{"title":"","name":"","description":"Almedíjar","tooltip-enabled":true,"marker-color":"#c71e1d","marker-size":1,"marker-symbol":"","anchor":"bottom-center","icon":"circle","text-offset-x":0,"text-offset-y":0,"text-style":"plain","text-rotate":0,"visible":true,"viewport":false,"text-bold":false,"text-italic":false,"text-uppercase":false,"text-space":false,"text-color":"#333333","text-font-size":14,"text-halo":"#f2f3f0"},"geometry":{"type":"Point","coordinates":[-0.4093054,39.8723007]}},{"type":"Feature","properties":{"title":"","name":"","description":"Azuébar","tooltip-enabled":true,"marker-color":"#c71e1d","marker-size":1,"marker-symbol":"","anchor":"bottom-center","icon":"circle","text-offset-x":0,"text-offset-y":0,"text-style":"plain","text-rotate":0,"visible":true,"viewport":false,"text-bold":false,"text-italic":false,"text-uppercase":false,"text-space":false,"text-color":"#333333","text-font-size":14,"text-halo":"#f2f3f0"},"geometry":{"type":"Point","coordinates":[-0.3692385,39.8344623]}},{"type":"Feature","properties":{"title":"\n","name":"","description":"Artana","tooltip-enabled":true,"marker-color":"#c71e1d","marker-size":1,"marker-symbol":"","anchor":"bottom-center","icon":"circle","text-offset-x":0,"text-offset-y":0,"text-style":"plain","text-rotate":0,"visible":true,"viewport":false,"text-bold":false,"text-italic":false,"text-uppercase":false,"text-space":false,"text-color":"#333333","text-font-size":14,"text-halo":"#f2f3f0"},"geometry":{"type":"Point","coordinates":[-0.2576603,39.8911264]}},{"type":"Feature","properties":{"title":"","name":"","description":"Fuentes de Ayódar","tooltip-enabled":true,"marker-color":"#c71e1d","marker-size":1,"marker-symbol":"","anchor":"bottom-center","icon":"circle","text-offset-x":0,"text-offset-y":0,"text-style":"plain","text-rotate":0,"visible":true,"viewport":false,"text-bold":false,"text-italic":false,"text-uppercase":false,"text-space":false,"text-color":"#333333","text-font-size":14,"text-halo":"#f2f3f0"},"geometry":{"type":"Point","coordinates":[-0.4197803,40.0208981]}},{"type":"Feature","properties":{"title":"","name":"","description":"Ayódar","tooltip-enabled":true,"marker-color":"#c71e1d","marker-size":1,"marker-symbol":"","anchor":"bottom-center","icon":"circle","text-offset-x":0,"text-offset-y":0,"text-style":"plain","text-rotate":0,"visible":true,"viewport":false,"text-bold":false,"text-italic":false,"text-uppercase":false,"text-space":false,"text-color":"#333333","text-font-size":14,"text-halo":"#f2f3f0"},"geometry":{"type":"Point","coordinates":[-0.3744545,39.9985635]}},{"type":"Feature","properties":{"title":"","name":"","description":"Villamalur","tooltip-enabled":true,"marker-color":"#c71e1d","marker-size":1,"marker-symbol":"","anchor":"bottom-center","icon":"circle","text-offset-x":0,"text-offset-y":0,"text-style":"plain","text-rotate":0,"visible":true,"viewport":false,"text-bold":false,"text-italic":false,"text-uppercase":false,"text-space":false,"text-color":"#333333","text-font-size":14,"text-halo":"#f2f3f0"},"geometry":{"type":"Point","coordinates":[-0.3953669,39.9648022]}},{"type":"Feature","properties":{"title":"","name":"","description":"Torralba del Pinar","tooltip-enabled":true,"marker-color":"#c71e1d","marker-size":1,"marker-symbol":"","anchor":"bottom-center","icon":"circle","text-offset-x":0,"text-offset-y":0,"text-style":"plain","text-rotate":0,"visible":true,"viewport":false,"text-bold":false,"text-italic":false,"text-uppercase":false,"text-space":false,"text-color":"#333333","text-font-size":14,"text-halo":"#f2f3f0"},"geometry":{"type":"Point","coordinates":[-0.4382786,39.9887744]}},{"type":"Feature","properties":{"title":"","name":"","description":"Suera","tooltip-enabled":true,"marker-color":"#c71e1d","marker-size":1,"marker-symbol":"","anchor":"bottom-center","icon":"circle","text-offset-x":0,"text-offset-y":0,"text-style":"plain","text-rotate":0,"visible":true,"viewport":false,"text-bold":false,"text-italic":false,"text-uppercase":false,"text-space":false,"text-color":"#333333","text-font-size":14,"text-halo":"#f2f3f0"},"geometry":{"type":"Point","coordinates":[-0.3322962,39.952339]}},{"type":"Feature","properties":{"title":"","name":"","description":"Tales","tooltip-enabled":true,"marker-color":"#c71e1d","marker-size":1,"marker-symbol":"","anchor":"bottom-center","icon":"circle","text-offset-x":0,"text-offset-y":0,"text-style":"plain","text-rotate":0,"visible":true,"viewport":false,"text-bold":false,"text-italic":false,"text-uppercase":false,"text-space":false,"text-color":"#333333","text-font-size":14,"text-halo":"#f2f3f0"},"geometry":{"type":"Point","coordinates":[-0.3076291,39.9480872]}},{"type":"Feature","properties":{"title":"","name":"","description":"Alcudia de Veo","tooltip-enabled":true,"marker-color":"#c71e1d","marker-size":1,"marker-symbol":"","anchor":"bottom-center","icon":"circle","text-offset-x":0,"text-offset-y":0,"text-style":"plain","text-rotate":0,"visible":true,"viewport":false,"text-bold":false,"text-italic":false,"text-uppercase":false,"text-space":false,"text-color":"#333333","text-font-size":14,"text-halo":"#f2f3f0"},"geometry":{"type":"Point","coordinates":[-0.354769,39.9158376]}},{"type":"Feature","properties":{"title":"","name":"","description":"Alfondeguilla","tooltip-enabled":true,"marker-color":"#c71e1d","marker-size":1,"marker-symbol":"","anchor":"bottom-center","icon":"circle","text-offset-x":0,"text-offset-y":0,"text-style":"plain","text-rotate":0,"visible":true,"viewport":false,"text-bold":false,"text-italic":false,"text-uppercase":false,"text-space":false,"text-color":"#333333","text-font-size":14,"text-halo":"#f2f3f0"},"geometry":{"type":"Point","coordinates":[-0.2690126,39.8376893]}},{"type":"Feature","properties":{"title":"","name":"","description":"Aín","tooltip-enabled":true,"marker-color":"#c71e1d","marker-size":1,"marker-symbol":"","anchor":"bottom-center","icon":"circle","text-offset-x":0,"text-offset-y":0,"text-style":"plain","text-rotate":0,"visible":true,"viewport":false,"text-bold":false,"text-italic":false,"text-uppercase":false,"text-space":false,"text-color":"#333333","text-font-size":14,"text-halo":"#f2f3f0"},"geometry":{"type":"Point","coordinates":[-0.3409807,39.9007811]}},{"type":"Feature","properties":{"title":"","name":"","description":"Artesa","tooltip-enabled":true,"marker-color":"#c71e1d","marker-size":1,"marker-symbol":"","anchor":"bottom-center","icon":"circle","text-offset-x":0,"text-offset-y":0,"text-style":"plain","text-rotate":0,"visible":true,"viewport":false,"text-bold":false,"text-italic":false,"text-uppercase":false,"text-space":false,"text-color":"#333333","text-font-size":14,"text-halo":"#f2f3f0"},"geometry":{"type":"Point","coordinates":[-0.2882703,39.958139]}},{"type":"Feature","properties":{"title":"","name":"","description":"Eslida","tooltip-enabled":true,"marker-color":"#c71e1d","marker-size":1,"marker-symbol":"","anchor":"bottom-center","icon":"circle","text-offset-x":0,"text-offset-y":0,"text-style":"plain","text-rotate":0,"visible":true,"viewport":false,"text-bold":false,"text-italic":false,"text-uppercase":false,"text-space":false,"text-color":"#333333","text-font-size":14,"text-halo":"#f2f3f0"},"geometry":{"type":"Point","coordinates":[-0.3079326,39.8794321]}},{"type":"Feature","properties":{"title":"","name":"","description":"Chóvar","tooltip-enabled":true,"marker-color":"#c71e1d","marker-size":1,"marker-symbol":"","anchor":"bottom-center","icon":"circle","text-offset-x":0,"text-offset-y":0,"text-style":"plain","text-rotate":0,"visible":true,"viewport":false,"text-bold":false,"text-italic":false,"text-uppercase":false,"text-space":false,"text-color":"#333333","text-font-size":14,"text-halo":"#f2f3f0"},"geometry":{"type":"Point","coordinates":[-0.3200757,39.8509369]}},{"type":"Feature","properties":{"title":"","name":"","description":"Betxí","tooltip-enabled":true,"marker-color":"#1d81a2","marker-size":1,"marker-symbol":"","anchor":"bottom-center","icon":"circle","text-offset-x":0,"text-offset-y":0,"text-style":"plain","text-rotate":0,"visible":true,"viewport":false,"text-bold":false,"text-italic":false,"text-uppercase":false,"text-space":false,"text-color":"#333333","text-font-size":14,"text-halo":"#f2f3f0"},"geometry":{"type":"Point","coordinates":[-0.1974253,39.9288397]}},{"type":"Feature","properties":{"title":"","name":"","description":"La Vall d'Uixó","tooltip-enabled":true,"marker-color":"#1d81a2","marker-size":1,"marker-symbol":"","anchor":"bottom-center","icon":"circle","text-offset-x":0,"text-offset-y":0,"text-style":"plain","text-rotate":0,"visible":true,"viewport":false,"text-bold":false,"text-italic":false,"text-uppercase":false,"text-space":false,"text-color":"#333333","text-font-size":14,"text-halo":"#f2f3f0"},"geometry":{"type":"Point","coordinates":[-0.2316995,39.8235837]}},{"type":"Feature","properties":{"title":"","name":"","description":"Vilavella","tooltip-enabled":true,"marker-color":"#c71e1d","marker-size":1,"marker-symbol":"","anchor":"bottom-center","icon":"circle","text-offset-x":0,"text-offset-y":0,"text-style":"plain","text-rotate":0,"visible":true,"viewport":false,"text-bold":false,"text-italic":false,"text-uppercase":false,"text-space":false,"text-color":"#333333","text-font-size":14,"text-halo":"#f2f3f0"},"geometry":{"type":"Point","coordinates":[-0.1831882,39.8587438]}}]}